[{"id":"88b6d27.1c8a33","type":"template","z":"53889699.701908","name":"TLE object","field":"TLEs","fieldType":"global","format":"handlebars","syntax":"mustache","template":"{\n  \"Norby\": {\n    \"satid\": \"Norby\",\n    \"tle1\": \"1 46494U 20068J   21115.93172576  .00000142  00000-0  14958-4 0  9991\",\n    \"tle2\": \"2 46494  97.6909  53.7916 0016285 258.2203 101.7189 15.03563069 31441\",\n    \"eta\": \"27.4.2021, 02:29:34\",\n    \"alt\": 0,\n    \"satidAlias\": \"Norby\",\n    \"eta_utc\": 1619483374784,\n    \"d_eta_utc\": 8704501,\n    \"d_eta\": \"02:25:04\",\n    \"l_eta\": \"<br>  <i style=\\\"background: #477AC2\\\"></i>                         ETA: 02:25:04 - Norby \",\n    \"bcolor\": \"#477AC2\",\n    \"popped\": false,\n    \"t_popped\": 0,\n    \"tooltip\": \"Norby\",\n    \"p_pass\": \"Norby\"\n  },\n  \"VR3X-A Littlefoot\": {\n    \"satid\": \"VR3X-A Littlefoot\",\n    \"tle1\": \"1 47463U 21006BC  21053.86202839  .00001407  00000-0  86849-4 0  9993\",\n    \"tle2\": \"2 47463  97.4990 116.9904 0010605 151.3085 208.8730 15.11473292  4725\",\n    \"eta\": \"\",\n    \"alt\": 0,\n    \"satidAlias\": \"VR3X-A Littlefoot\",\n    \"eta_utc\": 0,\n    \"d_eta_utc\": 0,\n    \"d_eta\": \"\",\n    \"l_eta\": \"\",\n    \"bcolor\": \"\",\n    \"popped\": false,\n    \"t_popped\": 0,\n    \"tooltip\": \"VR3X-A Littlefoot\",\n    \"p_pass\": \"\"\n  },\n  \"VR3X-B Petrie\": {\n    \"satid\": \"VR3X-B Petrie\",\n    \"tle1\": \"1 47467U 21006BG  21053.86075148  .00001393  00000-0  85861-4 0  9995\",\n    \"tle2\": \"2 47467  97.4995 116.9939 0010666 149.8091 210.3756 15.11539090  4723\",\n    \"eta\": \"\",\n    \"alt\": 0,\n    \"satidAlias\": \"VR3X-B Petrie\",\n    \"eta_utc\": 0,\n    \"d_eta_utc\": 0,\n    \"d_eta\": \"\",\n    \"l_eta\": \"\",\n    \"bcolor\": \"\",\n    \"popped\": false,\n    \"t_popped\": 0,\n    \"tooltip\": \"VR3X-B Petrie\",\n    \"p_pass\": \"\"\n  },\n  \"VR3X-C Cera\": {\n    \"satid\": \"VR3X-C Cera\",\n    \"tle1\": \"1 47524U 21006DQ  21054.12407896  .00001439  00000-0  88390-4 0  9999\",\n    \"tle2\": \"2 47524  97.5005 117.2599 0010665 146.9421 213.2478 15.11615930  4765\",\n    \"eta\": \"\",\n    \"alt\": 0,\n    \"satidAlias\": \"VR3X-C Cera\",\n    \"eta_utc\": 0,\n    \"d_eta_utc\": 0,\n    \"d_eta\": \"\",\n    \"l_eta\": \"\",\n    \"bcolor\": \"\",\n    \"popped\": false,\n    \"t_popped\": 565,\n    \"tooltip\": \"VR3X-C Cera\",\n    \"p_pass\": \"\"\n  },\n  \"Satish Dhawan Satellite\": {\n    \"satid\": \"Satish Dhawan Satellite\",\n    \"tle1\": \"1 47721U 21015W   21116.17296704 -.00000070  00000-0  00000+0 0  9994\",\n    \"tle2\": \"2 47721  97.4623 190.9666 0013267  84.6433 275.6419 15.20639389  8635\",\n    \"eta\": \"\",\n    \"alt\": 0,\n    \"satidAlias\": \"Satish Dhawan Satellite\",\n    \"eta_utc\": 0,\n    \"d_eta_utc\": 0,\n    \"d_eta\": \"\",\n    \"l_eta\": \"\",\n    \"bcolor\": \"\",\n    \"popped\": false,\n    \"t_popped\": 0,\n    \"tooltip\": \"Satish Dhawan Satellite\",\n    \"p_pass\": \"\"\n  },\n  \"Sri Shakthi Sat (UNITYsat 3)\": {\n    \"satid\": \"Sri Shakthi Sat (UNITYsat 3)\",\n    \"tle1\": \"1 47716U 21015T   21093.52252237 -.00000070  00000+0  00000+0 0  9993\",\n    \"tle2\": \"2 47716  97.4585 168.5207 0013232 160.9461 199.2332 15.21085427  5090\",\n    \"eta\": \"\",\n    \"alt\": 0,\n    \"satidAlias\": \"Sri Shakthi Sat (UNITYsat 3)\",\n    \"eta_utc\": 0,\n    \"d_eta_utc\": 0,\n    \"d_eta\": \"\",\n    \"l_eta\": \"\",\n    \"bcolor\": \"\",\n    \"popped\": false,\n    \"t_popped\": 0,\n    \"tooltip\": \"Sri Shakthi Sat (UNITYsat 3)\",\n    \"p_pass\": \"\"\n  },\n  \"Flexible Experimental Embedded Satellite\": {\n    \"satid\": \"Flexible Experimental Embedded Satellite\",\n    \"tle1\": \"1 48041U 21022AK  21111.22834664  .00001991  00000-0  13898-3 0  9997\",\n    \"tle2\": \"2 48041  97.5627  14.5584 0016718 132.6933 347.0891 15.06393376  3235\",\n    \"eta\": \"27.4.2021, 00:36:28\",\n    \"alt\": 0,\n    \"satidAlias\": \"FEES\",\n    \"eta_utc\": 1619476588784,\n    \"d_eta_utc\": 1918501,\n    \"d_eta\": \"00:31:58\",\n    \"l_eta\": \"<br>  <i style=\\\"background: #33ccff\\\"></i>                         ETA: 00:31:58 - FEES \",\n    \"bcolor\": \"#33ccff\",\n    \"popped\": false,\n    \"t_popped\": 0,\n    \"tooltip\": \"Flexible Experimental Embedded Satellite\",\n    \"p_pass\": \"Flexible Experimental Embedded Satellite\"\n  },\n  \"LACUNASAT-3\": {\n    \"satid\": \"LACUNASAT-3\",\n    \"tle1\": \"1 46492U 20068G   21115.77170952  .00001912  00000-0  14309-3 0  9992\",\n    \"tle2\": \"2 46492  97.6888  53.6923 0017566 253.3527 106.5779 15.03851645 31426\",\n    \"eta\": \"27.4.2021, 03:25:16\",\n    \"alt\": 0,\n    \"satidAlias\": \"LACUNASAT-3\",\n    \"eta_utc\": 1619486716784,\n    \"d_eta_utc\": 12046501,\n    \"d_eta\": \"03:20:46\",\n    \"l_eta\": \"<br>  <i style=\\\"background: #FCE206\\\"></i>                         ETA: 03:20:46 - LACUNASAT-3 \",\n    \"bcolor\": \"#FCE206\",\n    \"popped\": false,\n    \"t_popped\": 0,\n    \"tooltip\": \"LACUNASAT-3\",\n    \"p_pass\": \"LACUNASAT-3\"\n  },\n  \"LACUNASAT-2B\": {\n    \"satid\": \"LACUNASAT-2B\",\n    \"tle1\": \"1 47948U 21022S   21115.86516431  .00002170  00000-0  15218-3 0  9993\",\n    \"tle2\": \"2 47948  97.5675  19.1107 0022253 125.4162 234.9147 15.06041794  5010\",\n    \"eta\": \"27.4.2021, 00:49:58\",\n    \"alt\": 0,\n    \"satidAlias\": \"LACUNASAT-2B\",\n    \"eta_utc\": 1619477398784,\n    \"d_eta_utc\": 2728501,\n    \"d_eta\": \"00:45:28\",\n    \"l_eta\": \"<br>  <i style=\\\"background: #FDA50F\\\"></i>                         ETA: 00:45:28 - LACUNASAT-2B \",\n    \"bcolor\": \"#FDA50F\",\n    \"popped\": false,\n    \"t_popped\": 0,\n    \"tooltip\": \"LACUNASAT-2B\",\n    \"p_pass\": \"LACUNASAT-2B\"\n  }\n}","output":"json","x":510,"y":200,"wires":[[]]}]